STARLINK-1434           
1 45712U 20035BH  26068.24137979  .00054112  00000+0  20295-2 0  9995
2 45712  53.0547  22.1128 0005343  88.0400 272.1210 15.26724568319325
STARLINK-36108          
1 66868U 25281W   26068.17708284  .00030906  00000+0  11276-2 0  9997
2 66868  42.9977 346.6724 0002149 260.4820  99.5789 15.27589441 16093
